TISAT 1                 
1 36799U 10035E   26068.75703561  .00024554  00000+0  91005-3 0  9996
2 36799  98.0645   6.8512 0001343 159.3030 200.8262 15.27628633852505
STARLINK-34150          
1 63998U 25101E   26068.17269884  .00035860  00000+0  13070-2 0  9995
2 63998  43.0019   1.1076 0000695 271.6630  88.4142 15.27562634 46978
